NORAD_CAT_ID,OBJECT_NAME,OBJECT_TYPE,EPOCH,MEAN_MOTION,ECCENTRICITY,INCLINATION,RA_OF_ASC_NODE,ARG_OF_PERICENTER,MEAN_ANOMALY,BSTAR,MEAN_MOTION_DOT,MEAN_MOTION_DDOT,TLE_LINE0,TLE_LINE1,TLE_LINE2,SEMIMAJOR_AXIS,PERIOD,APOGEE,PERIGEE,DECAYED
53610.0,STARLINK-4610,PAYLOAD,2023-06-26 04:26:42,15.08843918,0.0001177,53.2174,347.326,82.8326,277.28,0.00030435,4.56e-05,0.0,0 STARLINK-4610,1 53610U 22104Y   23177.18521213  .00004560  00000-0  30435-3 0  9990,2 53610  53.2174 347.3260 0001177  82.8326 277.2800 15.08843918 45988,6917.868,95.437,540.548,538.919,0.0
53610.0,STARLINK-4610,PAYLOAD,2023-06-26 17:09:47,15.08833606,0.0001194,53.2178,344.9451,84.5946,275.5182,3.6722e-05,2.97e-06,0.0,0 STARLINK-4610,1 53610U 22104Y   23177.71513684  .00000297  00000-0  36722-4 0  9991,2 53610  53.2178 344.9451 0001194  84.5946 275.5182 15.08833606 46060,6917.9,95.438,540.591,538.939,0.0
53610.0,STARLINK-4610,PAYLOAD,2023-06-27 18:35:57,15.08846375,0.0001011,53.2176,340.1907,78.2699,281.8406,0.0002035,2.953e-05,0.0,0 STARLINK-4610,1 53610U 22104Y   23178.77497301  .00002953  00000-0  20350-3 0  9995,2 53610  53.2176 340.1907 0001011  78.2699 281.8406 15.08846375 46229,6917.861,95.437,540.425,539.027,0.0
53610.0,STARLINK-4610,PAYLOAD,2023-06-28 04:08:16,15.08840149,0.0001045,53.2174,338.4065,84.7252,275.3859,0.0002264,3.317e-05,0.0,0 STARLINK-4610,1 53610U 22104Y   23179.17241643  .00003317  00000-0  22640-3 0  9995,2 53610  53.2174 338.4065 0001045  84.7252 275.3859 15.08840149 46285,6917.88,95.438,540.468,539.022,0.0
53610.0,STARLINK-4610,PAYLOAD,2023-06-29 10:20:36,15.08841181,0.0001107,53.2179,332.7557,86.8421,273.2698,6.4703e-05,7.42e-06,0.0,0 STARLINK-4610,1 53610U 22104Y   23180.43097689  .00000742  00000-0  64703-4 0  9991,2 53610  53.2179 332.7557 0001107  86.8421 273.2698 15.08841181 46479,6917.877,95.437,540.508,538.976,0.0
53610.0,STARLINK-4610,PAYLOAD,2023-06-30 16:32:56,15.08831001,9.07e-05,53.218,327.1068,93.6442,266.4654,0.00030026,4.493e-05,0.0,0 STARLINK-4610,1 53610U 22104Y   23181.68953817  .00004493  00000-0  30026-3 0  9990,2 53610  53.2180 327.1068 0000907  93.6442 266.4654 15.08831001 46669,6917.908,95.438,540.4,539.145,0.0
53610.0,STARLINK-4610,PAYLOAD,2023-06-30 21:19:04,15.08847616,9.76e-05,53.2179,326.2139,95.3576,264.7527,0.00012786,1.748e-05,0.0,0 STARLINK-4610,1 53610U 22104Y   23181.88824809  .00001748  00000-0  12786-3 0  9993,2 53610  53.2179 326.2139 0000976  95.3576 264.7527 15.08847616 46691,6917.857,95.437,540.397,539.047,0.0
53610.0,STARLINK-4610,PAYLOAD,2023-07-01 16:23:43,15.08838189,9.84e-05,53.2179,322.6459,98.179,261.9314,5.0425e-05,5.15e-06,0.0,0 STARLINK-4610,1 53610U 22104Y   23182.68313879  .00000515  00000-0  50425-4 0  9996,2 53610  53.2179 322.6459 0000984  98.1790 261.9314 15.08838189 46816,6917.886,95.438,540.432,539.07,0.0
53610.0,STARLINK-4610,PAYLOAD,2023-07-03 01:46:48,15.08839287,9.29e-05,53.2174,316.3993,84.3497,275.7601,2.3024e-05,7.9e-07,0.0,0 STARLINK-4610,1 53610U 22104Y   23184.07417739  .00000079  00000-0  23024-4 0  9991,2 53610  53.2174 316.3993 0000929  84.3497 275.7601 15.08839287 47020,6917.883,95.438,540.39,539.105,0.0
53610.0,STARLINK-4610,PAYLOAD,2023-07-04 07:59:08,15.08837946,0.0001132,53.216,310.7503,87.0196,273.0926,6.0711e-05,6.78e-06,0.0,0 STARLINK-4610,1 53610U 22104Y   23185.33274121  .00000678  00000-0  60711-4 0  9996,2 53610  53.2160 310.7503 0001132  87.0196 273.0926 15.08837946 47215,6917.887,95.438,540.535,538.969,0.0
53610.0,STARLINK-4610,PAYLOAD,2023-07-05 15:46:51,15.08841315,9.85e-05,53.2167,304.8032,83.1785,276.9319,4.502e-05,4.29e-06,0.0,0 STARLINK-4610,1 53610U 22104Y   23186.65754218  .00000429  00000-0  45020-4 0  9992,2 53610  53.2167 304.8032 0000985  83.1785 276.9319 15.08841315 47414,6917.876,95.437,540.423,539.06,0.0
53610.0,STARLINK-4610,PAYLOAD,2023-07-07 01:09:57,15.08848644,9.97e-05,53.2172,298.5585,85.8935,274.2171,7.8057e-05,9.55e-06,0.0,0 STARLINK-4610,1 53610U 22104Y   23188.04857799  .00000955  00000-0  78057-4 0  9995,2 53610  53.2172 298.5585 0000997  85.8935 274.2171 15.08848644 47623,6917.854,95.437,540.409,539.029,0.0
53610.0,STARLINK-4610,PAYLOAD,2023-07-08 07:22:17,15.08841205,0.0001002,53.2169,292.9104,83.038,277.0726,7.5249e-05,9.1e-06,0.0,0 STARLINK-4610,1 53610U 22104Y   23189.30714165  .00000910  00000-0  75249-4 0  9995,2 53610  53.2169 292.9104 0001002  83.0380 277.0726 15.08841205 47810,6917.877,95.437,540.435,539.049,0.0
53610.0,STARLINK-4610,PAYLOAD,2023-07-09 13:34:37,15.0882897,0.0001021,53.2184,287.2614,93.7751,266.3358,-3.5143e-05,-8.47e-06,0.0,0 STARLINK-4610,1 53610U 22104Y   23190.56571339 -.00000847  00000-0 -35143-4 0  9999,2 53610  53.2184 287.2614 0001021  93.7751 266.3358 15.08828970 48009,6917.914,95.438,540.485,539.073,0.0
53610.0,STARLINK-4610,PAYLOAD,2023-07-09 23:06:56,15.08834012,0.000115,53.2187,285.477,94.2063,265.9061,5.3032e-06,-2.03e-06,0.0,0 STARLINK-4610,1 53610U 22104Y   23190.96315094 -.00000203  00000-0  53032-5 0  9990,2 53610  53.2187 285.4770 0001150  94.2063 265.9061 15.08834012 48066,6917.899,95.438,540.559,538.968,0.0
53610.0,STARLINK-4610,PAYLOAD,2023-07-10 13:25:23,15.08840314,0.0001034,53.2181,282.8006,97.26,262.851,0.00015961,2.253e-05,0.0,0 STARLINK-4610,1 53610U 22104Y   23191.55930314  .00002253  00000-0  15961-3 0  9997,2 53610  53.2181 282.8006 0001034  97.2600 262.8510 15.08840314 48151,6917.879,95.438,540.46,539.029,0.0
53610.0,STARLINK-4610,PAYLOAD,2023-07-11 06:54:38,15.0883099,9.78e-05,53.217,279.5289,96.0678,264.0426,0.00012939,1.772e-05,0.0,0 STARLINK-4610,1 53610U 22104Y   23192.28795111  .00001772  00000-0  12939-3 0  9999,2 53610  53.2170 279.5289 0000978  96.0678 264.0426 15.08830990 48264,6917.908,95.438,540.45,539.096,0.0
53610.0,STARLINK-4610,PAYLOAD,2023-07-11 22:48:29,15.08841322,0.0001006,53.2175,276.5547,88.0936,272.0171,0.0001192,1.61e-05,0.0,0 STARLINK-4610,1 53610U 22104Y   23192.95034716  .00001610  00000-0  11920-3 0  9990,2 53610  53.2175 276.5547 0001006  88.0936 272.0171 15.08841322 48362,6917.876,95.437,540.437,539.045,0.0
53610.0,STARLINK-4610,PAYLOAD,2023-07-12 14:42:20,15.08852544,0.0001196,53.2181,273.5813,104.1068,256.0057,9.2354e-05,1.183e-05,0.0,0 STARLINK-4610,1 53610U 22104Y   23193.61273907  .00001183  00000-0  92354-4 0  9997,2 53610  53.2181 273.5813 0001196 104.1068 256.0057 15.08852544 48462,6917.842,95.437,540.534,538.88,0.0
53610.0,STARLINK-4610,PAYLOAD,2023-07-13 11:22:22,15.08835832,0.0001272,53.2175,269.7166,75.3508,284.7625,-2.6051e-05,-7.02e-06,0.0,0 STARLINK-4610,1 53610U 22104Y   23194.47387457 -.00000702  00000-0 -26051-4 0  9997,2 53610  53.2175 269.7166 0001272  75.3508 284.7625 15.08835832 48590,6917.893,95.438,540.638,538.878,0.0
53610.0,STARLINK-4610,PAYLOAD,2023-07-14 09:37:45,15.08845325,0.00011,53.2164,265.552,76.4201,283.6913,0.00011021,1.467e-05,0.0,0 STARLINK-4610,1 53610U 22104Y   23195.40122541  .00001467  00000-0  11021-3 0  9999,2 53610  53.2164 265.5520 0001100  76.4201 283.6913 15.08845325 48730,6917.864,95.437,540.49,538.968,0.0
53610.0,STARLINK-4610,PAYLOAD,2023-07-15 09:28:33,15.08834646,0.0001158,53.2162,261.0918,68.9057,291.2059,0.00010729,1.42e-05,0.0,0 STARLINK-4610,1 53610U 22104Y   23196.39483345  .00001420  00000-0  10729-3 0  9993,2 53610  53.2162 261.0918 0001158  68.9057 291.2059 15.08834646 48884,6917.897,95.438,540.563,538.961,0.0
53610.0,STARLINK-4610,PAYLOAD,2023-07-16 10:54:43,15.08839648,0.000112,53.2163,256.3332,81.2142,278.8977,5.8763e-06,-1.94e-06,0.0,0 STARLINK-4610,1 53610U 22104Y   23197.45467361 -.00000194  00000-0  58763-5 0  9991,2 53610  53.2163 256.3332 0001120  81.2142 278.8977 15.08839648 49040,6917.881,95.438,540.521,538.972,0.0
53610.0,STARLINK-4610,PAYLOAD,2023-07-18 02:39:21,15.08845517,0.0001015,53.2159,248.8987,78.201,281.9096,0.00012216,1.657e-05,0.0,0 STARLINK-4610,1 53610U 22104Y   23199.11066676  .00001657  00000-0  12216-3 0  9995,2 53610  53.2159 248.8987 0001015  78.2010 281.9096 15.08845517 49296,6917.864,95.437,540.431,539.026,0.0
53610.0,STARLINK-4610,PAYLOAD,2023-07-18 10:36:16,15.08854133,0.0001035,53.2159,247.4121,80.1806,279.9303,0.00019889,2.88e-05,0.0,0 STARLINK-4610,1 53610U 22104Y   23199.44185849  .00002880  00000-0  19889-3 0  9997,2 53610  53.2159 247.4121 0001035  80.1806 279.9303 15.08854133 49346,6917.837,95.437,540.418,538.986,0.0
53610.0,STARLINK-4610,PAYLOAD,2023-07-19 02:30:11,15.08818248,0.000108,53.216,244.4389,80.3277,279.7837,-0.00014271,-2.557e-05,0.0,0 STARLINK-4610,1 53610U 22104Y   23200.10429606 -.00002557  00000-0 -14271-3 0  9998,2 53610  53.2160 244.4389 0001080  80.3277 279.7837 15.08818248 49443,6917.947,95.439,540.559,539.065,0.0
53610.0,STARLINK-4610,PAYLOAD,2023-07-21 02:11:45,15.08837598,0.0001044,53.2148,235.5185,89.1866,270.9246,0.00066166,0.00010257,0.0,0 STARLINK-4610,1 53610U 22104Y   23202.09150083  .00010257  00000-0  66166-3 0  9992,2 53610  53.2148 235.5185 0001044  89.1866 270.9246 15.08837598 49744,6917.888,95.438,540.475,539.031,0.0
53610.0,STARLINK-4610,PAYLOAD,2023-07-24 00:08:41,15.08844894,0.0001618,53.2162,222.4332,121.8986,238.2164,-6.8174e-05,-1.373e-05,0.0,0 STARLINK-4610,1 53610U 22104Y   23205.00604104 -.00001373  00000-0 -68174-4 0  9997,2 53610  53.2162 222.4332 0001618 121.8986 238.2164 15.08844894 50759,6917.865,95.437,540.85,538.611,0.0
53610.0,STARLINK-4610,PAYLOAD,2023-07-25 01:34:52,15.08841829,8.14e-05,53.2147,217.6736,98.5949,261.5136,0.0001483,2.073e-05,0.0,0 STARLINK-4610,1 53610U 22104Y   23206.06588179  .00002073  00000-0  14830-3 0  9992,2 53610  53.2147 217.6736 0000814  98.5949 261.5136 15.08841829 50913,6917.875,95.437,540.303,539.177,0.0
53610.0,STARLINK-4610,PAYLOAD,2023-07-26 01:25:39,15.08840952,9.16e-05,53.215,213.2142,97.1856,262.924,4.6744e-05,4.56e-06,0.0,0 STARLINK-4610,1 53610U 22104Y   23207.05948209  .00000456  00000-0  46744-4 0  9999,2 53610  53.2150 213.2142 0000916  97.1856 262.9240 15.08840952 51069,6917.877,95.437,540.376,539.109,0.0
